[{"OBJECT_NAME":"STARLINK-34490","OBJECT_ID":"2025-133G","EPOCH":"2026-03-09T10:44:27.647808","MEAN_MOTION":15.30280782,"ECCENTRICITY":0.00015318,"INCLINATION":53.1602,"RA_OF_ASC_NODE":117.7617,"ARG_OF_PERICENTER":84.3428,"MEAN_ANOMALY":275.7747,"EPHEMERIS_TYPE":0,"CLASSIFICATION_TYPE":"U","NORAD_CAT_ID":64478,"ELEMENT_SET_NO":999,"REV_AT_EPOCH":4115,"BSTAR":0.0022966574,"MEAN_MOTION_DOT":0.00068461,"MEAN_MOTION_DDOT":0},{"OBJECT_NAME":"CZ-4B DEB","OBJECT_ID":"2010-051E","EPOCH":"2026-03-08T22:01:50.125728","MEAN_MOTION":15.23766972,"ECCENTRICITY":0.00561086,"INCLINATION":97.769,"RA_OF_ASC_NODE":240.5013,"ARG_OF_PERICENTER":301.1291,"MEAN_ANOMALY":58.4449,"EPHEMERIS_TYPE":0,"CLASSIFICATION_TYPE":"U","NORAD_CAT_ID":38184,"ELEMENT_SET_NO":999,"REV_AT_EPOCH":82066,"BSTAR":0.0024566319,"MEAN_MOTION_DOT":0.00062123,"MEAN_MOTION_DDOT":0}]
